{
  "type": "FeatureCollection",
  "features": [
    {
      "type": "Feature",
      "properties": {
        "norad_id": 31322,
        "name": "FENGYUN 1C DEB",
        "group": "fengyun-1c-debris",
        "lat": -20.534150279121143,
        "lon": 47.36620942067243,
        "alt_km": 878.215153253941,
        "timestamp": "2025-12-05T14:45:15.580711+00:00",
        "meta_object_name": "FENGYUN 1C DEB",
        "meta_object_id": "1999-025BQA",
        "meta_epoch": "2025-12-02T09:57:05.346144",
        "meta_mean_motion": 13.72990391,
        "meta_eccentricity": 0.0239007,
        "meta_inclination": 98.5749,
        "meta_ra_of_asc_node": 41.2566,
        "meta_arg_of_pericenter": 37.8458,
        "meta_mean_anomaly": 334.6813,
        "meta_ephemeris_type": 0,
        "meta_classification_type": "U",
        "meta_norad_cat_id": 31322,
        "meta_element_set_no": 999,
        "meta_rev_at_epoch": 62134,
        "meta_bstar": 0.00025402374,
        "meta_mean_motion_dot": 2.51e-06,
        "meta_mean_motion_ddot": 0,
        "tle_line1": "1 31322U 99025BQA 25336.41464521  .00000251  00000+0  25402-3 0  9995",
        "tle_line2": "2 31322  98.5749  41.2566 0239007  37.8458 334.6813 13.72990391621343"
      },
      "geometry": {
        "type": "Point",
        "coordinates": [
          47.36620942067243,
          -20.534150279121143
        ]
      }
    },
    {
      "type": "Feature",
      "properties": {
        "norad_id": 31323,
        "name": "FENGYUN 1C DEB",
        "group": "fengyun-1c-debris",
        "lat": -58.664783547371776,
        "lon": 33.36224165812714,
        "alt_km": 828.6213603392589,
        "timestamp": "2025-12-05T14:45:15.580721+00:00",
        "meta_object_name": "FENGYUN 1C DEB",
        "meta_object_id": "1999-025BQB",
        "meta_epoch": "2025-12-02T07:58:19.286688",
        "meta_mean_motion": 14.274728,
        "meta_eccentricity": 0.00318958,
        "meta_inclination": 99.422,
        "meta_ra_of_asc_node": 14.0004,
        "meta_arg_of_pericenter": 109.182,
        "meta_mean_anomaly": 251.2815,
        "meta_ephemeris_type": 0,
        "meta_classification_type": "U",
        "meta_norad_cat_id": 31323,
        "meta_element_set_no": 999,
        "meta_rev_at_epoch": 63832,
        "meta_bstar": 0.0018110627,
        "meta_mean_motion_dot": 4.423e-05,
        "meta_mean_motion_ddot": 0,
        "tle_line1": "1 31323U 99025BQB 25336.33216767  .00004423  00000+0  18111-2 0  9997",
        "tle_line2": "2 31323  99.4220  14.0004 0031895 109.1820 251.2815 14.27472800638327"
      },
      "geometry": {
        "type": "Point",
        "coordinates": [
          33.36224165812714,
          -58.664783547371776
        ]
      }
    },
    {
      "type": "Feature",
      "properties": {
        "norad_id": 31324,
        "name": "FENGYUN 1C DEB",
        "group": "fengyun-1c-debris",
        "lat": 19.283473961737318,
        "lon": -102.28781950428704,
        "alt_km": 822.794120244851,
        "timestamp": "2025-12-05T14:45:15.580731+00:00",
        "meta_object_name": "FENGYUN 1C DEB",
        "meta_object_id": "1999-025BQC",
        "meta_epoch": "2025-12-04T01:19:10.557120",
        "meta_mean_motion": 14.1468472,
        "meta_eccentricity": 0.00496418,
        "meta_inclination": 99.1223,
        "meta_ra_of_asc_node": 259.3417,
        "meta_arg_of_pericenter": 329.0254,
        "meta_mean_anomaly": 30.7993,
        "meta_ephemeris_type": 0,
        "meta_classification_type": "U",
        "meta_norad_cat_id": 31324,
        "meta_element_set_no": 999,
        "meta_rev_at_epoch": 96363,
        "meta_bstar": 0.00033792063,
        "meta_mean_motion_dot": 6.11e-06,
        "meta_mean_motion_ddot": 0,
        "tle_line1": "1 31324U 99025BQC 25338.05498330  .00000611  00000+0  33792-3 0  9995",
        "tle_line2": "2 31324  99.1223 259.3417 0049641 329.0254  30.7993 14.14684720963636"
      },
      "geometry": {
        "type": "Point",
        "coordinates": [
          -102.28781950428704,
          19.283473961737318
        ]
      }
    },
    {
      "type": "Feature",
      "properties": {
        "norad_id": 31325,
        "name": "FENGYUN 1C DEB",
        "group": "fengyun-1c-debris",
        "lat": -54.41253310121626,
        "lon": -119.09124691850992,
        "alt_km": 792.4224675126534,
        "timestamp": "2025-12-05T14:45:15.580741+00:00",
        "meta_object_name": "FENGYUN 1C DEB",
        "meta_object_id": "1999-025BQD",
        "meta_epoch": "2025-11-24T23:23:39.646752",
        "meta_mean_motion": 14.16672096,
        "meta_eccentricity": 0.00707168,
        "meta_inclination": 98.9917,
        "meta_ra_of_asc_node": 62.9425,
        "meta_arg_of_pericenter": 270.4358,
        "meta_mean_anomaly": 88.8713,
        "meta_ephemeris_type": 0,
        "meta_classification_type": "U",
        "meta_norad_cat_id": 31325,
        "meta_element_set_no": 999,
        "meta_rev_at_epoch": 59526,
        "meta_bstar": 0.0025582335,
        "meta_mean_motion_dot": 5.193e-05,
        "meta_mean_motion_ddot": 0,
        "tle_line1": "1 31325U 99025BQD 25328.97476443  .00005193  00000+0  25582-2 0  9994",
        "tle_line2": "2 31325  98.9917  62.9425 0070716 270.4358  88.8713 14.16672096595261"
      },
      "geometry": {
        "type": "Point",
        "coordinates": [
          -119.09124691850992,
          -54.41253310121626
        ]
      }
    },
    {
      "type": "Feature",
      "properties": {
        "norad_id": 31326,
        "name": "FENGYUN 1C DEB",
        "group": "fengyun-1c-debris",
        "lat": -60.583654233419665,
        "lon": 24.146096591365588,
        "alt_km": 578.5539832663908,
        "timestamp": "2025-12-05T14:45:15.580752+00:00",
        "meta_object_name": "FENGYUN 1C DEB",
        "meta_object_id": "1999-025BQE",
        "meta_epoch": "2025-11-25T14:42:32.298048",
        "meta_mean_motion": 14.96360134,
        "meta_eccentricity": 0.00187059,
        "meta_inclination": 99.013,
        "meta_ra_of_asc_node": 208.9742,
        "meta_arg_of_pericenter": 1.9794,
        "meta_mean_anomaly": 358.1494,
        "meta_ephemeris_type": 0,
        "meta_classification_type": "U",
        "meta_norad_cat_id": 31326,
        "meta_element_set_no": 999,
        "meta_rev_at_epoch": 73489,
        "meta_bstar": 0.0084230344,
        "meta_mean_motion_dot": 0.00096893,
        "meta_mean_motion_ddot": 0,
        "tle_line1": "1 31326U 99025BQE 25329.61287382  .00096893  00000+0  84230-2 0  9991",
        "tle_line2": "2 31326  99.0130 208.9742 0018705   1.9794 358.1494 14.96360134734894"
      },
      "geometry": {
        "type": "Point",
        "coordinates": [
          24.146096591365588,
          -60.583654233419665
        ]
      }
    },
    {
      "type": "Feature",
      "properties": {
        "norad_id": 31327,
        "name": "FENGYUN 1C DEB",
        "group": "fengyun-1c-debris",
        "lat": 66.38594096597822,
        "lon": -179.01442706637692,
        "alt_km": 516.8582939005701,
        "timestamp": "2025-12-05T14:45:15.580762+00:00",
        "meta_object_name": "FENGYUN 1C DEB",
        "meta_object_id": "1999-025BQF",
        "meta_epoch": "2025-12-02T05:09:54.181152",
        "meta_mean_motion": 15.09995749,
        "meta_eccentricity": 0.0089281,
        "meta_inclination": 98.9847,
        "meta_ra_of_asc_node": 335.7853,
        "meta_arg_of_pericenter": 44.0162,
        "meta_mean_anomaly": 316.8127,
        "meta_ephemeris_type": 0,
        "meta_classification_type": "U",
        "meta_norad_cat_id": 31327,
        "meta_element_set_no": 999,
        "meta_rev_at_epoch": 99941,
        "meta_bstar": 0.0018104,
        "meta_mean_motion_dot": 0.00032362,
        "meta_mean_motion_ddot": 0,
        "tle_line1": "1 31327U 99025BQF 25336.21521043  .00032362  00000+0  18104-2 0  9999",
        "tle_line2": "2 31327  98.9847 335.7853 0089281  44.0162 316.8127 15.09995749999410"
      },
      "geometry": {
        "type": "Point",
        "coordinates": [
          -179.01442706637692,
          66.38594096597822
        ]
      }
    },
    {
      "type": "Feature",
      "properties": {
        "norad_id": 31328,
        "name": "FENGYUN 1C DEB",
        "group": "fengyun-1c-debris",
        "lat": -28.67268773678518,
        "lon": 128.89285745951193,
        "alt_km": 735.9258592747065,
        "timestamp": "2025-12-05T14:45:15.580772+00:00",
        "meta_object_name": "FENGYUN 1C DEB",
        "meta_object_id": "1999-025BQG",
        "meta_epoch": "2025-12-04T09:12:11.426112",
        "meta_mean_motion": 14.28939058,
        "meta_eccentricity": 0.0103292,
        "meta_inclination": 98.4822,
        "meta_ra_of_asc_node": 312.376,
        "meta_arg_of_pericenter": 241.2502,
        "meta_mean_anomaly": 117.8273,
        "meta_ephemeris_type": 0,
        "meta_classification_type": "U",
        "meta_norad_cat_id": 31328,
        "meta_element_set_no": 999,
        "meta_rev_at_epoch": 97343,
        "meta_bstar": 0.00016267,
        "meta_mean_motion_dot": 3.92e-06,
        "meta_mean_motion_ddot": 0,
        "tle_line1": "1 31328U 99025BQG 25338.38346558  .00000392  00000+0  16267-3 0  9993",
        "tle_line2": "2 31328  98.4822 312.3760 0103292 241.2502 117.8273 14.28939058973431"
      },
      "geometry": {
        "type": "Point",
        "coordinates": [
          128.89285745951193,
          -28.67268773678518
        ]
      }
    }
  ]
}